0 SENTINEL 3A
1 41335U 16011A   18230.17987554 -.00000013  00000-0  12641-4 0  9998
2 41335  98.6195 296.4945 0001073  89.5017 270.6286 14.26739198130247
0 SENTINEL 3A
1 41335U 16011A   18230.46039457 -.00000008  00000-0  14613-4 0  9995
2 41335  98.6195 296.7708 0001073  89.6490 270.4814 14.26739230130289
0 BREEZE-KM R/B
1 41336U 16011B   18229.94478038 +.00000420 +00000-0 +24509-4 0  9991
2 41336 098.7389 053.1900 0237009 204.6098 154.3664 14.98782905136698
0 BREEZE-KM R/B
1 41336U 16011B   18230.54564683  .00000414  00000-0  24222-4 0  9996
2 41336  98.7388  53.8636 0237051 202.6583 156.4037 14.98783825136783
0 ASTRO H
1 41337U 16012A   18229.52852758 +.00000220 +00000-0 +10954-4 0  9999
2 41337 031.0056 296.7666 0012511 291.8175 068.1129 14.98489976136923
0 ASTRO H
1 41337U 16012A   18230.19464727  .00000209  00000-0  10070-4 0  9995
2 41337  31.0055 292.5444 0012510 298.3635  61.5738 14.98490052137024
0 CHUBUSAT 2
1 41338U 16012B   18229.53485306 +.00000299 +00000-0 +16635-4 0  9990
2 41338 031.0029 283.8723 0013903 320.9050 039.0580 15.00009429137055
0 CHUBUSAT 2
1 41338U 16012B   18230.33338657  .00000296  00000-0  16362-4 0  9990
2 41338  31.0028 278.7986 0013886 328.7852  31.1958 15.00009719137171
0 CHUBUSAT 3
1 41339U 16012C   18230.20635691  .00000239  00000-0  11850-4 0  9999
2 41339  31.0119 278.1155 0013792 333.9457  26.0509 15.00194751137143
0 CHUBUSAT 3
1 41339U 16012C   18230.53903777  .00000255  00000-0  13146-4 0  9996
2 41339  31.0115 276.0002 0013797 337.6275  22.3763 15.00195026137193
0 HORYU 4
1 41340U 16012D   18230.23107988  .00000418  00000-0  25236-4 0  9999
2 41340  31.0046 272.1345 0014117 348.6717  11.3600 15.01031853137225
0 HORYU 4
1 41340U 16012D   18229.43309059 +.00000421 +00000-0 +25425-4 0  9996
2 41340 031.0047 277.2128 0014120 340.7628 019.2474 15.01031419137100
0 NOAA 16 DEB
1 41343U 00055HL  18230.44336648  .00000531  00000-0  29362-3 0  9991
2 41343  98.7619 296.7765 0029451 218.5405 141.3666 14.15339436132265
0 NOAA 16 DEB
1 41344U 00055HM  18229.21790625 +.00000753 +00000-0 +37582-3 0  9993
2 41344 099.0138 327.9110 0035656 138.8656 221.5217 14.19643321132272
0 NOAA 16 DEB
1 41345U 00055HN  18230.23933682  .00001706  00000-0  61113-3 0  9996
2 41345  98.8534 331.2814 0077467  81.7585 279.2375 14.33619177134086
0 NOAA 16 DEB
1 41348U 00055HR  18229.40481217 +.00000651 +00000-0 +36524-3 0  9994
2 41348 098.8473 299.0428 0040307 081.7145 278.8596 14.13675604131710
0 NOAA 16 DEB
1 41349U 00055HS  18229.04731198 +.00000723 +00000-0 +34359-3 0  9995
2 41349 098.8939 319.6127 0045989 156.4295 203.9003 14.22061685134320
0 NOAA 16 DEB
1 41349U 00055HS  18230.03235521  .00000701  00000-0  33381-3 0  9995
2 41349  98.8939 320.6059 0046020 153.7347 206.6178 14.22063060134468
0 NOAA 16 DEB
1 41351U 00055HU  18229.94562806 +.00000361 +00000-0 +22824-3 0  9997
2 41351 098.7926 291.7355 0012444 062.0710 298.1719 14.10176110133916
0 NOAA 16 DEB
1 41352U 00055HV  18229.71522590 +.00000534 +00000-0 +25580-3 0  9993
2 41352 098.8790 319.5158 0051939 099.5493 261.1559 14.22567963133906
0 NOAA 16 DEB
1 41352U 00055HV  18230.20757084  .00000514  00000-0  24695-3 0  9991
2 41352  98.8790 320.0118 0051900  98.1681 262.5388 14.22568370133976
0 NOAA 16 DEB
1 41356U 00055HZ  18229.39658989 +.00000644 +00000-0 +41109-3 0  9990
2 41356 098.8831 294.4222 0044161 321.7362 038.0675 14.06622734133767
0 NOAA 16 DEB
1 41357U 00055JA  18229.92023033 +.00000237 +00000-0 +20314-3 0  9999
2 41357 098.9114 278.7695 0087234 065.5623 295.4608 13.94306908130246
0 NOAA 16 DEB
1 41357U 00055JA  18230.35078517  .00000252  00000-0  21417-3 0  9997
2 41357  98.9114 279.1850 0087185  64.3922 296.6217 13.94307172130308
0 NOAA 16 DEB
1 41358U 00055JB  18230.46464671  .00000461  00000-0  27031-3 0  9990
2 41358  98.8221 300.2576 0019096 242.9597 116.9627 14.13042790131074
0 NOAA 16 DEB
1 41359U 00055JC  18230.70313560  .00000670  00000-0  32488-3 0  9992
2 41359  98.8773 318.3495 0039911 131.2830 229.1794 14.21331659131194
0 NOAA 16 DEB
1 41360U 00055JD  18229.68983374 +.00000541 +00000-0 +31289-3 0  9990
2 41360 098.9209 309.4714 0028602 264.2934 095.4976 14.13005487131658
0 NOAA 16 DEB
1 41361U 00055JE  18229.63073969 +.00000110 +00000-0 +93326-4 0  9999
2 41361 098.8690 291.6238 0038740 064.9822 295.5361 14.05529694129357
0 NOAA 16 DEB
1 41361U 00055JE  18230.41379437  .00000147  00000-0  11627-3 0  9999
2 41361  98.8689 292.3900 0038635  62.8286 297.6812 14.05530036129461
0 NOAA 16 DEB
1 41362U 00055JF  18229.04686541 +.00000647 +00000-0 +29863-3 0  9990
2 41362 098.8873 321.2958 0052364 106.1223 254.5729 14.23734930132912
0 NOAA 16 DEB
1 41362U 00055JF  18230.73352160  .00000649  00000-0  29977-3 0  9993
2 41362  98.8873 322.9999 0052243 101.4403 259.2649 14.23737359133157
0 NOAA 16 DEB
1 41363U 00055JG  18229.01903515 +.00000787 +00000-0 +39072-3 0  9999
2 41363 098.8954 314.8197 0030340 135.3379 225.0248 14.19790184130883
0 NOAA 16 DEB
1 41363U 00055JG  18230.71037496  .00000820  00000-0  40623-3 0  9996
2 41363  98.8953 316.5190 0030282 130.9657 229.4146 14.19793203131127
0 NOAA 16 DEB
1 41365U 00055JJ  18230.71517595  .00000728  00000-0  35568-3 0  9990
2 41365  98.8739 316.7237 0048126 166.5454 193.7017 14.20502377130863
0 NOAA 16 DEB
1 41366U 00055JK  18229.14862731 +.00000421 +00000-0 +28955-3 0  9993
2 41366 098.9835 298.3979 0045941 069.0096 291.5977 14.04367590129612
0 NOAA 16 DEB
1 41366U 00055JK  18230.00357341  .00000437  00000-0  29918-3 0  9993
2 41366  98.9835 299.2436 0045746  66.6684 293.9287 14.04368257129733
0 NOAA 16 DEB
1 41368U 00055JM  18229.02876100 +.00000762 +00000-0 +41462-3 0  9993
2 41368 098.9728 316.6765 0035244 248.6929 111.0480 14.14998848132028
0 NOAA 16 DEB
1 41369U 00055JN  18229.41975213 +.00000894 +00000-0 +48748-3 0  9992
2 41369 098.8444 299.2547 0027180 082.9690 277.4573 14.14473504132826
0 NOAA 16 DEB
1 41369U 00055JN  18230.41007106  .00000912  00000-0  49704-3 0  9995
2 41369  98.8444 300.2354 0026997  80.2960 280.1260 14.14475427132966
0 NOAA 16 DEB
1 41370U 00055JP  18230.23846888  .00000903  00000-0  33140-3 0  9992
2 41370  98.8820 335.4109 0090976  91.2560 269.9048 14.32946941141783
0 NOAA 16 DEB
1 41370U 00055JP  18229.74968753 +.00000907 +00000-0 +33305-3 0  9999
2 41370 098.8820 334.9098 0091019 092.6719 268.4887 14.32946040141712
0 NOAA 16 DEB
1 41371U 00055JQ  18230.21292872  .00000858  00000-0  42585-3 0  9991
2 41371  98.9986 319.5170 0021766  93.2014 267.1652 14.19778232140080
0 NOAA 16 DEB
1 41372U 00055JR  18230.24366009  .00000766  00000-0  30152-3 0  9994
2 41372  98.9702 340.6155 0082475 119.9143 241.0262 14.30327556134463
0 NOAA 16 DEB
1 41372U 00055JR  18229.75398289 +.00000770 +00000-0 +30280-3 0  9990
2 41372 098.9702 340.1108 0082498 121.3089 239.6202 14.30326789134393
0 NOAA 16 DEB
1 41373U 00055JS  18229.03391531 +.00000588 +00000-0 +30211-3 0  9996
2 41373 098.8723 312.8286 0031148 163.2190 197.0023 14.18979598133253
0 NOAA 16 DEB
1 41373U 00055JS  18230.02109530  .00000588  00000-0  30205-3 0  9996
2 41373  98.8722 313.8166 0031191 160.5929 199.6442 14.18980922133399
0 NOAA 16 DEB
1 41374U 00055JT  18229.62798242 +.00000463 +00000-0 +30472-3 0  9993
2 41374 098.8947 296.4740 0035952 340.3174 019.6605 14.06495132132181
0 NOAA 16 DEB
1 41374U 00055JT  18230.41049819  .00000515  00000-0  33562-3 0  9992
2 41374  98.8946 297.2432 0035916 337.9869  21.9755 14.06495999132295
0 NOAA 16 DEB
1 41375U 00055JU  18230.07672053  .00001025  00000-0  52725-3 0  9996
2 41375  98.9484 316.5636 0028515 107.6834 252.7457 14.17334598133042
0 NOAA 16 DEB
1 41375U 00055JU  18229.08839810 +.00000995 +00000-0 +51245-3 0  9992
2 41375 098.9484 315.5688 0028641 110.2011 250.2247 14.17332386132902
0 NOAA 16 DEB
1 41376U 00055JV  18229.43813782 +.00000502 +00000-0 +28175-3 0  9992
2 41376 098.8569 305.7322 0022425 220.6781 139.2718 14.14965576133445
0 NOAA 16 DEB
1 41376U 00055JV  18230.14526459  .00000502  00000-0  28172-3 0  9991
2 41376  98.8569 306.4340 0022487 218.7093 141.2469 14.14966375133540
0 NOAA 16 DEB
1 41377U 00055JW  18229.01950564 +.00000545 +00000-0 +31427-3 0  9998
2 41377 098.9015 307.0698 0025524 260.5966 099.2320 14.13155927133988
0 NOAA 16 DEB
1 41378U 00055JX  18229.60865624 +.00000375 +00000-0 +25140-3 0  9992
2 41378 098.8162 288.1061 0044569 327.6880 032.1560 14.06282158133143
0 NOAA 16 DEB
1 41379U 00055JY  18229.00682222 +.00000544 +00000-0 +27681-3 0  9998
2 41379 098.8366 310.1804 0035496 120.4129 240.0562 14.19618354134301
0 NOAA 16 DEB
1 41379U 00055JY  18230.69836833  .00000561  00000-0  28481-3 0  9992
2 41379  98.8365 311.8683 0035434 115.8596 244.6240 14.19620412134537
0 SES 9
1 41380U 16013A   18229.79337361 -.00000367 +00000-0 +00000-0 0  9995
2 41380 000.0490 278.6652 0001935 191.9133 249.4291 01.00271781008794
0 SES 9
1 41380U 16013A   18229.79337435 -.00000367  00000-0  00000+0 0  9996
2 41380   0.0502 278.9828 0001968 192.8141 248.2109  1.00272317  9074
0 EUTE 65W
1 41382U 16014A   18229.27667662 -.00000298 +00000-0 +00000-0 0  9994
2 41382 000.0486 022.4895 0001757 113.9289 223.5818 01.00271984008875
0 ARIANE 5 R/B
1 41383U 16014B   18229.84801211 +.00008814 +41927-6 +62815-3 0  9993
2 41383 000.7995 062.6889 7130061 225.9024 010.7546 02.50371436021302
0 ARIANE 5 R/B
1 41383U 16014B   18230.64670727  .00010059  66642-6  72899-3 0  9997
2 41383   0.8021  62.4588 7129843 226.5080  10.6669  2.50387515 21324
0 ARIANE 5 R/B
1 41383U 16014B   18230.24736564  .00009780  54577-6  70013-3 0  9994
2 41383   0.8009  62.5816 7129977 226.1962  10.7104  2.50380602 21312
